[Satellite]
VERSION=1.1
NAME=TIANWANG 1A (TW-1A)
NICKNAME=TIANWANG 1A (TW-1A)
TLE1=1 40928U 15051D   20158.04372580  .00002800  00000-0  66304-4 0  9993
TLE2=2 40928  97.1096 186.1532 0009104 221.2144 194.2830 15.42567860263612
STATUS=0
